STARLINK-31415          
1 59419U 24064X   25258.20929976  .00003103  00000+0  12222-3 0  9998
2 59419  42.9988 327.6016 0000390 268.9196  91.1611 15.27581325 82387
STARLINK-31466          
1 59420U 24064Y   25258.20544647  .00000907  00000+0  42467-4 0  9992
2 59420  43.0006 327.5699 0000996 266.6363  93.4375 15.27576949 82389
STARLINK-11087 [DTC]    
1 59421U 24065A   25258.23228074  .00001680  00000+0  18718-4 0  9991
2 59421  53.1581 238.9617 0001646  89.7687 270.3519 15.69722464 83952
STARLINK-11090 [DTC]    
1 59422U 24065B   25258.21757553  .00001618  00000+0  18220-4 0  9998
2 59422  53.1575 238.8672 0001167  71.4994 288.6151 15.69701831 83974
STARLINK-11093 [DTC]    
1 59423U 24065C   25258.22247270 -.00002732  00000+0 -17683-4 0  9992
2 59423  53.1591 238.8989 0001272  90.6302 269.4862 15.69727770 83962
STARLINK-11083 [DTC]    
1 59424U 24065D   25256.69930269  .00001305  00000+0  15626-4 0  9997
2 59424  53.1615 246.4645 0001360  72.9847 287.1320 15.69719897 83674
STARLINK-11085 [DTC]    
1 59425U 24065E   25258.21266923 -.00000494  00000+0  78261-6 0  9992
2 59425  53.1595 238.8350 0001414  92.3729 267.7451 15.69707858 83915
STARLINK-11089 [DTC]    
1 59426U 24065F   25258.23719400 -.00000790  00000+0 -16649-5 0  9999
2 59426  53.1596 239.0125 0001144  87.1971 272.9178 15.69717681 83965
STARLINK-31757          
1 59427U 24065G   25257.55954047  .00000154  00000+0  17314-4 0  9993
2 59427  53.1632  19.7526 0000937  45.9675 314.1403 15.30189940 81964
STARLINK-31773          
1 59429U 24065J   25258.06359889 -.00001919  00000+0 -52718-4 0  9994
2 59429  53.1639  19.3321 0001290  99.1295 260.9852 15.30175059 82013
STARLINK-31772          
1 59430U 24065K   25258.06622663 -.00000298  00000+0  20488-5 0  9997
2 59430  53.1620  17.2163 0001192  87.6436 272.4701 15.30188769 82042
STARLINK-31613          
1 59431U 24065L   25257.62168939  .00000555  00000+0  30873-4 0  9993
2 59431  53.1618  19.4181 0000929  42.1130 317.9942 15.30186638 81974
STARLINK-31780          
1 59432U 24065M   25257.62908014 -.00000397  00000+0 -12790-5 0  9995
2 59432  53.1629  19.4611 0001519  64.1366 295.9791 15.30184623 81975
STARLINK-31740          
1 59433U 24065N   25257.60426360 -.00007997  00000+0 -25820-3 0  9992
2 59433  53.1619  21.4447 0000643  40.3168 319.7880 15.30195509 81944
STARLINK-31580          
1 59434U 24065P   25258.06992223 -.00000203  00000+0  52818-5 0  9991
2 59434  53.1629  19.3719 0001513  95.3226 264.7947 15.30189203 82012
STARLINK-31696          
1 59435U 24065Q   25257.61852217 -.00000080  00000+0  94326-5 0  9993
2 59435  53.1621  19.3972 0001994  89.0975 271.0254 15.30190395 81970
