[{"OBJECT_NAME":"STARLINK-31415","OBJECT_ID":"2024-064X","EPOCH":"2025-09-15T05:01:23.499264","MEAN_MOTION":15.27581325,"ECCENTRICITY":3.903e-5,"INCLINATION":42.9988,"RA_OF_ASC_NODE":327.6016,"ARG_OF_PERICENTER":268.9196,"MEAN_ANOMALY":91.1611,"EPHEMERIS_TYPE":0,"CLASSIFICATION_TYPE":"U","NORAD_CAT_ID":59419,"ELEMENT_SET_NO":999,"REV_AT_EPOCH":8238,"BSTAR":0.00012222191,"MEAN_MOTION_DOT":3.103e-5,"MEAN_MOTION_DDOT":0},{"OBJECT_NAME":"STARLINK-31466","OBJECT_ID":"2024-064Y","EPOCH":"2025-09-15T04:55:50.575008","MEAN_MOTION":15.27576949,"ECCENTRICITY":9.968e-5,"INCLINATION":43.0006,"RA_OF_ASC_NODE":327.5699,"ARG_OF_PERICENTER":266.6363,"MEAN_ANOMALY":93.4375,"EPHEMERIS_TYPE":0,"CLASSIFICATION_TYPE":"U","NORAD_CAT_ID":59420,"ELEMENT_SET_NO":999,"REV_AT_EPOCH":8238,"BSTAR":4.246696e-5,"MEAN_MOTION_DOT":9.07e-6,"MEAN_MOTION_DDOT":0},{"OBJECT_NAME":"STARLINK-11087 [DTC]","OBJECT_ID":"2024-065A","EPOCH":"2025-09-15T05:34:29.055936","MEAN_MOTION":15.69722464,"ECCENTRICITY":0.00016463,"INCLINATION":53.1581,"RA_OF_ASC_NODE":238.9617,"ARG_OF_PERICENTER":89.7687,"MEAN_ANOMALY":270.3519,"EPHEMERIS_TYPE":0,"CLASSIFICATION_TYPE":"U","NORAD_CAT_ID":59421,"ELEMENT_SET_NO":999,"REV_AT_EPOCH":8395,"BSTAR":1.8717513e-5,"MEAN_MOTION_DOT":1.68e-5,"MEAN_MOTION_DDOT":0},{"OBJECT_NAME":"STARLINK-11090 [DTC]","OBJECT_ID":"2024-065B","EPOCH":"2025-09-15T05:13:18.525792","MEAN_MOTION":15.69701831,"ECCENTRICITY":0.00011675,"INCLINATION":53.1575,"RA_OF_ASC_NODE":238.8672,"ARG_OF_PERICENTER":71.4994,"MEAN_ANOMALY":288.6151,"EPHEMERIS_TYPE":0,"CLASSIFICATION_TYPE":"U","NORAD_CAT_ID":59422,"ELEMENT_SET_NO":999,"REV_AT_EPOCH":8397,"BSTAR":1.8219751e-5,"MEAN_MOTION_DOT":1.618e-5,"MEAN_MOTION_DDOT":0},{"OBJECT_NAME":"STARLINK-11093 [DTC]","OBJECT_ID":"2024-065C","EPOCH":"2025-09-15T05:20:21.641280","MEAN_MOTION":15.6972777,"ECCENTRICITY":0.00012727,"INCLINATION":53.1591,"RA_OF_ASC_NODE":238.8989,"ARG_OF_PERICENTER":90.6302,"MEAN_ANOMALY":269.4862,"EPHEMERIS_TYPE":0,"CLASSIFICATION_TYPE":"U","NORAD_CAT_ID":59423,"ELEMENT_SET_NO":999,"REV_AT_EPOCH":8396,"BSTAR":-1.7683352e-5,"MEAN_MOTION_DOT":-2.732e-5,"MEAN_MOTION_DDOT":0},{"OBJECT_NAME":"STARLINK-11083 [DTC]","OBJECT_ID":"2024-065D","EPOCH":"2025-09-13T16:46:59.752416","MEAN_MOTION":15.69719897,"ECCENTRICITY":0.00013603,"INCLINATION":53.1615,"RA_OF_ASC_NODE":246.4645,"ARG_OF_PERICENTER":72.9847,"MEAN_ANOMALY":287.132,"EPHEMERIS_TYPE":0,"CLASSIFICATION_TYPE":"U","NORAD_CAT_ID":59424,"ELEMENT_SET_NO":999,"REV_AT_EPOCH":8367,"BSTAR":1.5625926e-5,"MEAN_MOTION_DOT":1.305e-5,"MEAN_MOTION_DDOT":0},{"OBJECT_NAME":"STARLINK-11085 [DTC]","OBJECT_ID":"2024-065E","EPOCH":"2025-09-15T05:06:14.621472","MEAN_MOTION":15.69707858,"ECCENTRICITY":0.00014143,"INCLINATION":53.1595,"RA_OF_ASC_NODE":238.835,"ARG_OF_PERICENTER":92.3729,"MEAN_ANOMALY":267.7451,"EPHEMERIS_TYPE":0,"CLASSIFICATION_TYPE":"U","NORAD_CAT_ID":59425,"ELEMENT_SET_NO":999,"REV_AT_EPOCH":8391,"BSTAR":7.8261e-7,"MEAN_MOTION_DOT":-4.94e-6,"MEAN_MOTION_DDOT":0},{"OBJECT_NAME":"STARLINK-11089 [DTC]","OBJECT_ID":"2024-065F","EPOCH":"2025-09-15T05:41:33.561600","MEAN_MOTION":15.69717681,"ECCENTRICITY":0.00011445,"INCLINATION":53.1596,"RA_OF_ASC_NODE":239.0125,"ARG_OF_PERICENTER":87.1971,"MEAN_ANOMALY":272.9178,"EPHEMERIS_TYPE":0,"CLASSIFICATION_TYPE":"U","NORAD_CAT_ID":59426,"ELEMENT_SET_NO":999,"REV_AT_EPOCH":8396,"BSTAR":-1.664894e-6,"MEAN_MOTION_DOT":-7.9e-6,"MEAN_MOTION_DDOT":0},{"OBJECT_NAME":"STARLINK-31757","OBJECT_ID":"2024-065G","EPOCH":"2025-09-14T13:25:44.296608","MEAN_MOTION":15.3018994,"ECCENTRICITY":9.379e-5,"INCLINATION":53.1632,"RA_OF_ASC_NODE":19.7526,"ARG_OF_PERICENTER":45.9675,"MEAN_ANOMALY":314.1403,"EPHEMERIS_TYPE":0,"CLASSIFICATION_TYPE":"U","NORAD_CAT_ID":59427,"ELEMENT_SET_NO":999,"REV_AT_EPOCH":8196,"BSTAR":1.7313561e-5,"MEAN_MOTION_DOT":1.54e-6,"MEAN_MOTION_DDOT":0},{"OBJECT_NAME":"STARLINK-31773","OBJECT_ID":"2024-065J","EPOCH":"2025-09-15T01:31:34.944096","MEAN_MOTION":15.30175059,"ECCENTRICITY":0.00012906,"INCLINATION":53.1639,"RA_OF_ASC_NODE":19.3321,"ARG_OF_PERICENTER":99.1295,"MEAN_ANOMALY":260.9852,"EPHEMERIS_TYPE":0,"CLASSIFICATION_TYPE":"U","NORAD_CAT_ID":59429,"ELEMENT_SET_NO":999,"REV_AT_EPOCH":8201,"BSTAR":-5.2718497e-5,"MEAN_MOTION_DOT":-1.919e-5,"MEAN_MOTION_DDOT":0},{"OBJECT_NAME":"STARLINK-31772","OBJECT_ID":"2024-065K","EPOCH":"2025-09-15T01:35:21.980832","MEAN_MOTION":15.30188769,"ECCENTRICITY":0.00011929,"INCLINATION":53.162,"RA_OF_ASC_NODE":17.2163,"ARG_OF_PERICENTER":87.6436,"MEAN_ANOMALY":272.4701,"EPHEMERIS_TYPE":0,"CLASSIFICATION_TYPE":"U","NORAD_CAT_ID":59430,"ELEMENT_SET_NO":999,"REV_AT_EPOCH":8204,"BSTAR":2.048773e-6,"MEAN_MOTION_DOT":-2.98e-6,"MEAN_MOTION_DDOT":0},{"OBJECT_NAME":"STARLINK-31613","OBJECT_ID":"2024-065L","EPOCH":"2025-09-14T14:55:13.963296","MEAN_MOTION":15.30186638,"ECCENTRICITY":9.293e-5,"INCLINATION":53.1618,"RA_OF_ASC_NODE":19.4181,"ARG_OF_PERICENTER":42.113,"MEAN_ANOMALY":317.9942,"EPHEMERIS_TYPE":0,"CLASSIFICATION_TYPE":"U","NORAD_CAT_ID":59431,"ELEMENT_SET_NO":999,"REV_AT_EPOCH":8197,"BSTAR":3.0873349e-5,"MEAN_MOTION_DOT":5.55e-6,"MEAN_MOTION_DDOT":0},{"OBJECT_NAME":"STARLINK-31780","OBJECT_ID":"2024-065M","EPOCH":"2025-09-14T15:05:52.524096","MEAN_MOTION":15.30184623,"ECCENTRICITY":0.00015193,"INCLINATION":53.1629,"RA_OF_ASC_NODE":19.4611,"ARG_OF_PERICENTER":64.1366,"MEAN_ANOMALY":295.9791,"EPHEMERIS_TYPE":0,"CLASSIFICATION_TYPE":"U","NORAD_CAT_ID":59432,"ELEMENT_SET_NO":999,"REV_AT_EPOCH":8197,"BSTAR":-1.278981e-6,"MEAN_MOTION_DOT":-3.97e-6,"MEAN_MOTION_DDOT":0},{"OBJECT_NAME":"STARLINK-31740","OBJECT_ID":"2024-065N","EPOCH":"2025-09-14T14:30:08.375040","MEAN_MOTION":15.30195509,"ECCENTRICITY":6.435e-5,"INCLINATION":53.1619,"RA_OF_ASC_NODE":21.4447,"ARG_OF_PERICENTER":40.3168,"MEAN_ANOMALY":319.788,"EPHEMERIS_TYPE":0,"CLASSIFICATION_TYPE":"U","NORAD_CAT_ID":59433,"ELEMENT_SET_NO":999,"REV_AT_EPOCH":8194,"BSTAR":-0.00025820112,"MEAN_MOTION_DOT":-7.997e-5,"MEAN_MOTION_DDOT":0},{"OBJECT_NAME":"STARLINK-31580","OBJECT_ID":"2024-065P","EPOCH":"2025-09-15T01:40:41.280672","MEAN_MOTION":15.30189203,"ECCENTRICITY":0.00015138,"INCLINATION":53.1629,"RA_OF_ASC_NODE":19.3719,"ARG_OF_PERICENTER":95.3226,"MEAN_ANOMALY":264.7947,"EPHEMERIS_TYPE":0,"CLASSIFICATION_TYPE":"U","NORAD_CAT_ID":59434,"ELEMENT_SET_NO":999,"REV_AT_EPOCH":8201,"BSTAR":5.281754e-6,"MEAN_MOTION_DOT":-2.03e-6,"MEAN_MOTION_DDOT":0},{"OBJECT_NAME":"STARLINK-31696","OBJECT_ID":"2024-065Q","EPOCH":"2025-09-14T14:50:40.315488","MEAN_MOTION":15.30190395,"ECCENTRICITY":0.00019947,"INCLINATION":53.1621,"RA_OF_ASC_NODE":19.3972,"ARG_OF_PERICENTER":89.0975,"MEAN_ANOMALY":271.0254,"EPHEMERIS_TYPE":0,"CLASSIFICATION_TYPE":"U","NORAD_CAT_ID":59435,"ELEMENT_SET_NO":999,"REV_AT_EPOCH":8197,"BSTAR":9.432615e-6,"MEAN_MOTION_DOT":-8.0e-7,"MEAN_MOTION_DDOT":0}]
